{
  "type": "FeatureCollection",
  "features": [
    {
      "type": "Feature",
      "properties": {
        "norad_id": 66521,
        "name": "STARLINK-35915",
        "group": "last-30-days",
        "lat": -1.9339875628083822,
        "lon": -111.53394537238283,
        "alt_km": 415.0754037924007,
        "timestamp": "2025-12-10T14:53:35.946336+00:00",
        "meta_object_name": "STARLINK-35915",
        "meta_object_id": "2025-265F",
        "meta_epoch": "2025-12-10T06:00:02.000160",
        "meta_mean_motion": 15.50604995,
        "meta_eccentricity": 0.00014641,
        "meta_inclination": 42.9998,
        "meta_ra_of_asc_node": 68.5572,
        "meta_arg_of_pericenter": 265.2655,
        "meta_mean_anomaly": 6.6898,
        "meta_ephemeris_type": 0,
        "meta_classification_type": "U",
        "meta_norad_cat_id": 66521,
        "meta_element_set_no": 999,
        "meta_rev_at_epoch": 459,
        "meta_bstar": -0.0014011907,
        "meta_mean_motion_dot": -0.00081765,
        "meta_mean_motion_ddot": 0,
        "tle_line1": "1 66521U 25265F   25344.25002315 -.00081765  00000+0 -14012-2 0  9994",
        "tle_line2": "2 66521  42.9998  68.5572 0001464 265.2655   6.6898 15.50604995  4591"
      },
      "geometry": {
        "type": "Point",
        "coordinates": [
          -111.53394537238283,
          -1.9339875628083822
        ]
      }
    },
    {
      "type": "Feature",
      "properties": {
        "norad_id": 66522,
        "name": "STARLINK-35946",
        "group": "last-30-days",
        "lat": -3.237504491716666,
        "lon": -110.13515921581232,
        "alt_km": 415.3201696324277,
        "timestamp": "2025-12-10T14:53:35.946345+00:00",
        "meta_object_name": "STARLINK-35946",
        "meta_object_id": "2025-265G",
        "meta_epoch": "2025-12-10T06:00:02.000160",
        "meta_mean_motion": 15.50597455,
        "meta_eccentricity": 0.00016101,
        "meta_inclination": 42.9996,
        "meta_ra_of_asc_node": 68.5525,
        "meta_arg_of_pericenter": 272.2136,
        "meta_mean_anomaly": 1.6614,
        "meta_ephemeris_type": 0,
        "meta_classification_type": "U",
        "meta_norad_cat_id": 66522,
        "meta_element_set_no": 999,
        "meta_rev_at_epoch": 459,
        "meta_bstar": -0.0011795952,
        "meta_mean_motion_dot": -0.00068982,
        "meta_mean_motion_ddot": 0,
        "tle_line1": "1 66522U 25265G   25344.25002315 -.00068982  00000+0 -11796-2 0  9997",
        "tle_line2": "2 66522  42.9996  68.5525 0001610 272.2136   1.6614 15.50597455  4596"
      },
      "geometry": {
        "type": "Point",
        "coordinates": [
          -110.13515921581232,
          -3.237504491716666
        ]
      }
    },
    {
      "type": "Feature",
      "properties": {
        "norad_id": 66523,
        "name": "STARLINK-35969",
        "group": "last-30-days",
        "lat": -4.540929553284309,
        "lon": -108.7307064187034,
        "alt_km": 415.3506640188789,
        "timestamp": "2025-12-10T14:53:35.946355+00:00",
        "meta_object_name": "STARLINK-35969",
        "meta_object_id": "2025-265H",
        "meta_epoch": "2025-12-10T06:00:02.000160",
        "meta_mean_motion": 15.50596006,
        "meta_eccentricity": 0.00016024,
        "meta_inclination": 42.9999,
        "meta_ra_of_asc_node": 68.5479,
        "meta_arg_of_pericenter": 267.3456,
        "meta_mean_anomaly": 8.4474,
        "meta_ephemeris_type": 0,
        "meta_classification_type": "U",
        "meta_norad_cat_id": 66523,
        "meta_element_set_no": 999,
        "meta_rev_at_epoch": 459,
        "meta_bstar": -0.0011492631,
        "meta_mean_motion_dot": -0.00067229,
        "meta_mean_motion_ddot": 0,
        "tle_line1": "1 66523U 25265H   25344.25002315 -.00067229  00000+0 -11493-2 0  9995",
        "tle_line2": "2 66523  42.9999  68.5479 0001602 267.3456   8.4474 15.50596006  4599"
      },
      "geometry": {
        "type": "Point",
        "coordinates": [
          -108.7307064187034,
          -4.540929553284309
        ]
      }
    },
    {
      "type": "Feature",
      "properties": {
        "norad_id": 66524,
        "name": "STARLINK-35687",
        "group": "last-30-days",
        "lat": -5.844706179318571,
        "lon": -107.31811024822102,
        "alt_km": 415.35845859412166,
        "timestamp": "2025-12-10T14:53:35.946366+00:00",
        "meta_object_name": "STARLINK-35687",
        "meta_object_id": "2025-265J",
        "meta_epoch": "2025-12-10T06:00:02.000160",
        "meta_mean_motion": 15.50553467,
        "meta_eccentricity": 0.00016248,
        "meta_inclination": 43.0001,
        "meta_ra_of_asc_node": 68.543,
        "meta_arg_of_pericenter": 270.0085,
        "meta_mean_anomaly": 7.6997,
        "meta_ephemeris_type": 0,
        "meta_classification_type": "U",
        "meta_norad_cat_id": 66524,
        "meta_element_set_no": 999,
        "meta_rev_at_epoch": 459,
        "meta_bstar": 0.0010439873,
        "meta_mean_motion_dot": 0.0006133,
        "meta_mean_motion_ddot": 0,
        "tle_line1": "1 66524U 25265J   25344.25002315  .00061330  00000+0  10440-2 0  9992",
        "tle_line2": "2 66524  43.0001  68.5430 0001624 270.0085   7.6997 15.50553467  4591"
      },
      "geometry": {
        "type": "Point",
        "coordinates": [
          -107.31811024822102,
          -5.844706179318571
        ]
      }
    },
    {
      "type": "Feature",
      "properties": {
        "norad_id": 66525,
        "name": "STARLINK-35975",
        "group": "last-30-days",
        "lat": -7.139480894302126,
        "lon": -105.90505348290466,
        "alt_km": 415.5911812007198,
        "timestamp": "2025-12-10T14:53:35.946376+00:00",
        "meta_object_name": "STARLINK-35975",
        "meta_object_id": "2025-265K",
        "meta_epoch": "2025-12-10T06:00:02.000160",
        "meta_mean_motion": 15.50600882,
        "meta_eccentricity": 0.00015609,
        "meta_inclination": 42.9998,
        "meta_ra_of_asc_node": 68.5378,
        "meta_arg_of_pericenter": 267.0801,
        "meta_mean_anomaly": 12.5457,
        "meta_ephemeris_type": 0,
        "meta_classification_type": "U",
        "meta_norad_cat_id": 66525,
        "meta_element_set_no": 999,
        "meta_rev_at_epoch": 459,
        "meta_bstar": -0.001296579,
        "meta_mean_motion_dot": -0.00075734,
        "meta_mean_motion_ddot": 0,
        "tle_line1": "1 66525U 25265K   25344.25002315 -.00075734  00000+0 -12966-2 0  9993",
        "tle_line2": "2 66525  42.9998  68.5378 0001560 267.0801  12.5457 15.50600882  4597"
      },
      "geometry": {
        "type": "Point",
        "coordinates": [
          -105.90505348290466,
          -7.139480894302126
        ]
      }
    },
    {
      "type": "Feature",
      "properties": {
        "norad_id": 66526,
        "name": "STARLINK-35932",
        "group": "last-30-days",
        "lat": -8.431536324133537,
        "lon": -104.48141153129235,
        "alt_km": 415.8163237277895,
        "timestamp": "2025-12-10T14:53:35.946385+00:00",
        "meta_object_name": "STARLINK-35932",
        "meta_object_id": "2025-265L",
        "meta_epoch": "2025-12-10T06:00:02.000160",
        "meta_mean_motion": 15.50609062,
        "meta_eccentricity": 0.0001549,
        "meta_inclination": 43.0001,
        "meta_ra_of_asc_node": 68.5335,
        "meta_arg_of_pericenter": 273.2814,
        "meta_mean_anomaly": 8.2547,
        "meta_ephemeris_type": 0,
        "meta_classification_type": "U",
        "meta_norad_cat_id": 66526,
        "meta_element_set_no": 999,
        "meta_rev_at_epoch": 448,
        "meta_bstar": -0.0014606563,
        "meta_mean_motion_dot": -0.00085197,
        "meta_mean_motion_ddot": 0,
        "tle_line1": "1 66526U 25265L   25344.25002315 -.00085197  00000+0 -14607-2 0  9992",
        "tle_line2": "2 66526  43.0001  68.5335 0001549 273.2814   8.2547 15.50609062  4487"
      },
      "geometry": {
        "type": "Point",
        "coordinates": [
          -104.48141153129235,
          -8.431536324133537
        ]
      }
    },
    {
      "type": "Feature",
      "properties": {
        "norad_id": 66527,
        "name": "STARLINK-35935",
        "group": "last-30-days",
        "lat": -9.71698041736386,
        "lon": -103.04942926839318,
        "alt_km": 415.77338845935265,
        "timestamp": "2025-12-10T14:53:35.946394+00:00",
        "meta_object_name": "STARLINK-35935",
        "meta_object_id": "2025-265M",
        "meta_epoch": "2025-12-10T06:00:02.000160",
        "meta_mean_motion": 15.50595871,
        "meta_eccentricity": 0.00014062,
        "meta_inclination": 42.9999,
        "meta_ra_of_asc_node": 68.5294,
        "meta_arg_of_pericenter": 263.8419,
        "meta_mean_anomaly": 19.6129,
        "meta_ephemeris_type": 0,
        "meta_classification_type": "U",
        "meta_norad_cat_id": 66527,
        "meta_element_set_no": 999,
        "meta_rev_at_epoch": 459,
        "meta_bstar": -0.0010812772,
        "meta_mean_motion_dot": -0.00063302,
        "meta_mean_motion_ddot": 0,
        "tle_line1": "1 66527U 25265M   25344.25002315 -.00063302  00000+0 -10813-2 0  9992",
        "tle_line2": "2 66527  42.9999  68.5294 0001406 263.8419  19.6129 15.50595871  4590"
      },
      "geometry": {
        "type": "Point",
        "coordinates": [
          -103.04942926839318,
          -9.71698041736386
        ]
      }
    }
  ]
}